CCSDS_OMM_VERS = 2.0
CREATION_DATE  = 
ORIGINATOR     = 

OBJECT_NAME    = AQUA
OBJECT_ID      = 2002-022A
CENTER_NAME    = EARTH
REF_FRAME      = TEME
TIME_SYSTEM    = UTC
MEAN_ELEMENT_THEORY = SGP/SGP4

EPOCH          = 2026-04-24T04:41:12.280992
MEAN_MOTION    = 14.62069895
ECCENTRICITY   = .0002007
INCLINATION    = 98.4242
RA_OF_ASC_NODE = 82.4155
ARG_OF_PERICENTER = 97.9758
MEAN_ANOMALY   = 318.4045

EPHEMERIS_TYPE = 0
CLASSIFICATION_TYPE = U
NORAD_CAT_ID   = 27424
ELEMENT_SET_NO = 999
REV_AT_EPOCH   = 27538
BSTAR          = .12992E-3
MEAN_MOTION_DOT = .603E-5
MEAN_MOTION_DDOT = 0

CCSDS_OMM_VERS = 2.0
CREATION_DATE  = 
ORIGINATOR     = 

OBJECT_NAME    = CZ-4B R/B
OBJECT_ID      = 2002-024C
CENTER_NAME    = EARTH
REF_FRAME      = TEME
TIME_SYSTEM    = UTC
MEAN_ELEMENT_THEORY = SGP/SGP4

EPOCH          = 2026-04-24T02:54:52.854048
MEAN_MOTION    = 14.14555266
ECCENTRICITY   = .0049122
INCLINATION    = 98.8749
RA_OF_ASC_NODE = 167.2791
ARG_OF_PERICENTER = 253.5634
MEAN_ANOMALY   = 125.4611

EPHEMERIS_TYPE = 0
CLASSIFICATION_TYPE = U
NORAD_CAT_ID   = 27432
ELEMENT_SET_NO = 999
REV_AT_EPOCH   = 23566
BSTAR          = .31189E-4
MEAN_MOTION_DOT = .16E-6
MEAN_MOTION_DDOT = 0

CCSDS_OMM_VERS = 2.0
CREATION_DATE  = 
ORIGINATOR     = 

OBJECT_NAME    = MIDORI II (ADEOS-II)
OBJECT_ID      = 2002-056A
CENTER_NAME    = EARTH
REF_FRAME      = TEME
TIME_SYSTEM    = UTC
MEAN_ELEMENT_THEORY = SGP/SGP4

EPOCH          = 2026-04-23T14:32:56.228640
MEAN_MOTION    = 14.29316826
ECCENTRICITY   = .00006944
INCLINATION    = 98.7838
RA_OF_ASC_NODE = 72.4165
ARG_OF_PERICENTER = 145.7502
MEAN_ANOMALY   = 214.3725

EPHEMERIS_TYPE = 0
CLASSIFICATION_TYPE = U
NORAD_CAT_ID   = 27597
ELEMENT_SET_NO = 999
REV_AT_EPOCH   = 21671
BSTAR          = .9934606E-4
MEAN_MOTION_DOT = .208E-5
MEAN_MOTION_DDOT = 0

CCSDS_OMM_VERS = 2.0
CREATION_DATE  = 
ORIGINATOR     = 

OBJECT_NAME    = H-2A R/B
OBJECT_ID      = 2002-056E
CENTER_NAME    = EARTH
REF_FRAME      = TEME
TIME_SYSTEM    = UTC
MEAN_ELEMENT_THEORY = SGP/SGP4

EPOCH          = 2026-04-23T22:13:53.679936
MEAN_MOTION    = 14.33791523
ECCENTRICITY   = .00708632
INCLINATION    = 98.3274
RA_OF_ASC_NODE = 72.5919
ARG_OF_PERICENTER = 27.7688
MEAN_ANOMALY   = 20.7794

EPHEMERIS_TYPE = 0
CLASSIFICATION_TYPE = U
NORAD_CAT_ID   = 27601
ELEMENT_SET_NO = 999
REV_AT_EPOCH   = 22059
BSTAR          = .10201415E-3
MEAN_MOTION_DOT = .25E-5
MEAN_MOTION_DDOT = 0

CCSDS_OMM_VERS = 2.0
CREATION_DATE  = 
ORIGINATOR     = 

OBJECT_NAME    = CZ-4B R/B
OBJECT_ID      = 2003-049C
CENTER_NAME    = EARTH
REF_FRAME      = TEME
TIME_SYSTEM    = UTC
MEAN_ELEMENT_THEORY = SGP/SGP4

EPOCH          = 2026-04-23T23:25:26.984064
MEAN_MOTION    = 14.55057969
ECCENTRICITY   = .0049339
INCLINATION    = 98.6899
RA_OF_ASC_NODE = 110.6691
ARG_OF_PERICENTER = 93.4510
MEAN_ANOMALY   = 267.2331

EPHEMERIS_TYPE = 0
CLASSIFICATION_TYPE = U
NORAD_CAT_ID   = 28059
ELEMENT_SET_NO = 999
REV_AT_EPOCH   = 19318
BSTAR          = .7415E-4
MEAN_MOTION_DOT = .274E-5
MEAN_MOTION_DDOT = 0

CCSDS_OMM_VERS = 2.0
CREATION_DATE  = 
ORIGINATOR     = 

OBJECT_NAME    = CZ-2C R/B
OBJECT_ID      = 2004-012C
CENTER_NAME    = EARTH
REF_FRAME      = TEME
TIME_SYSTEM    = UTC
MEAN_ELEMENT_THEORY = SGP/SGP4

EPOCH          = 2026-04-24T03:07:05.716128
MEAN_MOTION    = 15.70092370
ECCENTRICITY   = .0013854
INCLINATION    = 97.7135
RA_OF_ASC_NODE = 183.9060
ARG_OF_PERICENTER = 142.0315
MEAN_ANOMALY   = 218.1926

EPHEMERIS_TYPE = 0
CLASSIFICATION_TYPE = U
NORAD_CAT_ID   = 28222
ELEMENT_SET_NO = 999
REV_AT_EPOCH   = 21139
BSTAR          = .43134E-3
MEAN_MOTION_DOT = .52339E-3
MEAN_MOTION_DDOT = 0

CCSDS_OMM_VERS = 2.0
CREATION_DATE  = 
ORIGINATOR     = 

OBJECT_NAME    = SL-16 R/B
OBJECT_ID      = 2004-021B
CENTER_NAME    = EARTH
REF_FRAME      = TEME
TIME_SYSTEM    = UTC
MEAN_ELEMENT_THEORY = SGP/SGP4

EPOCH          = 2026-04-24T03:17:39.410880
MEAN_MOTION    = 14.14604817
ECCENTRICITY   = .0006806
INCLINATION    = 70.9988
RA_OF_ASC_NODE = 137.1206
ARG_OF_PERICENTER = 311.3205
MEAN_ANOMALY   = 48.7331

EPHEMERIS_TYPE = 0
CLASSIFICATION_TYPE = U
NORAD_CAT_ID   = 28353
ELEMENT_SET_NO = 999
REV_AT_EPOCH   = 12926
BSTAR          = -.81455E-4
MEAN_MOTION_DOT = -.204E-5
MEAN_MOTION_DDOT = 0

CCSDS_OMM_VERS = 2.0
CREATION_DATE  = 
ORIGINATOR     = 

OBJECT_NAME    = CZ-4B R/B
OBJECT_ID      = 2004-035C
CENTER_NAME    = EARTH
REF_FRAME      = TEME
TIME_SYSTEM    = UTC
MEAN_ELEMENT_THEORY = SGP/SGP4

EPOCH          = 2026-04-24T01:15:27.538848
MEAN_MOTION    = 15.29786631
ECCENTRICITY   = .0032209
INCLINATION    = 97.3426
RA_OF_ASC_NODE = 147.7569
ARG_OF_PERICENTER = 164.4795
MEAN_ANOMALY   = 195.7441

EPHEMERIS_TYPE = 0
CLASSIFICATION_TYPE = U
NORAD_CAT_ID   = 28415
ELEMENT_SET_NO = 999
REV_AT_EPOCH   = 18684
BSTAR          = .19586E-3
MEAN_MOTION_DOT = .5661E-4
MEAN_MOTION_DDOT = 0

CCSDS_OMM_VERS = 2.0
CREATION_DATE  = 
ORIGINATOR     = 

OBJECT_NAME    = CZ-2C R/B
OBJECT_ID      = 2004-046B
CENTER_NAME    = EARTH
REF_FRAME      = TEME
TIME_SYSTEM    = UTC
MEAN_ELEMENT_THEORY = SGP/SGP4

EPOCH          = 2026-04-24T04:51:01.299168
MEAN_MOTION    = 14.27009510
ECCENTRICITY   = .0139924
INCLINATION    = 98.1968
RA_OF_ASC_NODE = 26.3489
ARG_OF_PERICENTER = 20.7939
MEAN_ANOMALY   = 339.8858

EPHEMERIS_TYPE = 0
CLASSIFICATION_TYPE = U
NORAD_CAT_ID   = 28480
ELEMENT_SET_NO = 999
REV_AT_EPOCH   = 11499
BSTAR          = .60126E-4
MEAN_MOTION_DOT = .121E-5
MEAN_MOTION_DDOT = 0

CCSDS_OMM_VERS = 2.0
CREATION_DATE  = 
ORIGINATOR     = 

OBJECT_NAME    = ARIANE 5 R/B
OBJECT_ID      = 2004-049H
CENTER_NAME    = EARTH
REF_FRAME      = TEME
TIME_SYSTEM    = UTC
MEAN_ELEMENT_THEORY = SGP/SGP4

EPOCH          = 2026-04-23T16:49:31.625472
MEAN_MOTION    = 14.85348273
ECCENTRICITY   = .00835398
INCLINATION    = 98.2687
RA_OF_ASC_NODE = 283.8628
ARG_OF_PERICENTER = 204.3987
MEAN_ANOMALY   = 155.3263

EPHEMERIS_TYPE = 0
CLASSIFICATION_TYPE = U
NORAD_CAT_ID   = 28499
ELEMENT_SET_NO = 999
REV_AT_EPOCH   = 15247
BSTAR          = .81951853E-4
MEAN_MOTION_DOT = .685E-5
MEAN_MOTION_DDOT = 0

CCSDS_OMM_VERS = 2.0
CREATION_DATE  = 
ORIGINATOR     = 

OBJECT_NAME    = CZ-2D R/B
OBJECT_ID      = 2005-024B
CENTER_NAME    = EARTH
REF_FRAME      = TEME
TIME_SYSTEM    = UTC
MEAN_ELEMENT_THEORY = SGP/SGP4

EPOCH          = 2026-04-23T23:51:40.074048
MEAN_MOTION    = 15.64198157
ECCENTRICITY   = .0004493
INCLINATION    = 97.3549
RA_OF_ASC_NODE = 130.9380
ARG_OF_PERICENTER = 174.8423
MEAN_ANOMALY   = 185.2883

EPHEMERIS_TYPE = 0
CLASSIFICATION_TYPE = U
NORAD_CAT_ID   = 28738
ELEMENT_SET_NO = 999
REV_AT_EPOCH   = 14685
BSTAR          = .36186E-3
MEAN_MOTION_DOT = .34358E-3
MEAN_MOTION_DDOT = 0

CCSDS_OMM_VERS = 2.0
CREATION_DATE  = 
ORIGINATOR     = 

OBJECT_NAME    = ALOS (DAICHI)
OBJECT_ID      = 2006-002A
CENTER_NAME    = EARTH
REF_FRAME      = TEME
TIME_SYSTEM    = UTC
MEAN_ELEMENT_THEORY = SGP/SGP4

EPOCH          = 2026-04-23T15:15:31.459392
MEAN_MOTION    = 14.69932587
ECCENTRICITY   = .00018931
INCLINATION    = 98.1284
RA_OF_ASC_NODE = 69.3917
ARG_OF_PERICENTER = 106.3471
MEAN_ANOMALY   = 253.7943

EPHEMERIS_TYPE = 0
CLASSIFICATION_TYPE = U
NORAD_CAT_ID   = 28931
ELEMENT_SET_NO = 999
REV_AT_EPOCH   = 8008
BSTAR          = .14038541E-3
MEAN_MOTION_DOT = .791E-5
MEAN_MOTION_DDOT = 0

